STARLINK-5459           
1 55669U 23021AT  26068.68533530 -.00000655  00000+0 -47051-4 0  9992
2 55669  70.0008 164.4772 0003433 272.8333  87.2433 14.98337361169277
SKYKRAFT-4E             
1 65227U 25154L   26068.74493236  .00007969  00000+0  70464-3 0  9993
2 65227  97.6795 135.3397 0004237 218.3459 141.7462 14.96573469 32459
